{
  "type": "FeatureCollection",
  "features": [
    {
      "type": "Feature",
      "properties": {
        "norad_id": 43286,
        "name": "IRNSS-1I",
        "group": "gnss",
        "lat": -11.340823444360476,
        "lon": 56.093797668983925,
        "alt_km": 35872.96077193197,
        "timestamp": "2025-12-05T18:53:13.525896+00:00",
        "meta_object_name": "IRNSS-1I",
        "meta_object_id": "2018-035A",
        "meta_epoch": "2025-12-04T20:50:09.481056",
        "meta_mean_motion": 1.00267909,
        "meta_eccentricity": 0.0022049,
        "meta_inclination": 29.131,
        "meta_ra_of_asc_node": 77.2208,
        "meta_arg_of_pericenter": 181.8312,
        "meta_mean_anomaly": 182.5191,
        "meta_ephemeris_type": 0,
        "meta_classification_type": "U",
        "meta_norad_cat_id": 43286,
        "meta_element_set_no": 999,
        "meta_rev_at_epoch": 2813,
        "meta_bstar": 0,
        "meta_mean_motion_dot": 7.6e-07,
        "meta_mean_motion_ddot": 0,
        "tle_line1": "1 43286U 18035A   25338.86816529  .00000076  00000+0  00000+0 0  9997",
        "tle_line2": "2 43286  29.1310  77.2208 0022049 181.8312 182.5191  1.00267909 28133"
      },
      "geometry": {
        "type": "Point",
        "coordinates": [
          56.093797668983925,
          -11.340823444360476
        ]
      }
    },
    {
      "type": "Feature",
      "properties": {
        "norad_id": 43508,
        "name": "COSMOS 2527 (756)",
        "group": "gnss",
        "lat": 26.22822101924302,
        "lon": 93.34825874685818,
        "alt_km": 19148.36587518392,
        "timestamp": "2025-12-05T18:53:13.525913+00:00",
        "meta_object_name": "COSMOS 2527 (756)",
        "meta_object_id": "2018-053A",
        "meta_epoch": "2025-12-04T19:27:07.624224",
        "meta_mean_motion": 2.1310203,
        "meta_eccentricity": 0.00086941,
        "meta_inclination": 65.4682,
        "meta_ra_of_asc_node": 80.3968,
        "meta_arg_of_pericenter": 224.6174,
        "meta_mean_anomaly": 135.3122,
        "meta_ephemeris_type": 0,
        "meta_classification_type": "U",
        "meta_norad_cat_id": 43508,
        "meta_element_set_no": 999,
        "meta_rev_at_epoch": 5813,
        "meta_bstar": 0,
        "meta_mean_motion_dot": -2.1e-07,
        "meta_mean_motion_ddot": 0,
        "tle_line1": "1 43508U 18053A   25338.81050491 -.00000021  00000+0  00000+0 0  9998",
        "tle_line2": "2 43508  65.4682  80.3968 0008694 224.6174 135.3122  2.13102030 58136"
      },
      "geometry": {
        "type": "Point",
        "coordinates": [
          93.34825874685818,
          26.22822101924302
        ]
      }
    },
    {
      "type": "Feature",
      "properties": {
        "norad_id": 43539,
        "name": "BEIDOU-2 IGSO-7 (C16)",
        "group": "gnss",
        "lat": -41.78107472755313,
        "lon": 126.1798407220514,
        "alt_km": 35661.27997686014,
        "timestamp": "2025-12-05T18:53:13.525930+00:00",
        "meta_object_name": "BEIDOU-2 IGSO-7 (C16)",
        "meta_object_id": "2018-057A",
        "meta_epoch": "2025-12-04T10:49:25.352832",
        "meta_mean_motion": 1.00259277,
        "meta_eccentricity": 0.0092474,
        "meta_inclination": 55.1728,
        "meta_ra_of_asc_node": 164.7444,
        "meta_arg_of_pericenter": 235.1674,
        "meta_mean_anomaly": 307.3303,
        "meta_ephemeris_type": 0,
        "meta_classification_type": "U",
        "meta_norad_cat_id": 43539,
        "meta_element_set_no": 999,
        "meta_rev_at_epoch": 2717,
        "meta_bstar": 0,
        "meta_mean_motion_dot": -3.5e-07,
        "meta_mean_motion_ddot": 0,
        "tle_line1": "1 43539U 18057A   25338.45098788 -.00000035  00000+0  00000+0 0  9992",
        "tle_line2": "2 43539  55.1728 164.7444 0092474 235.1674 307.3303  1.00259277 27177"
      },
      "geometry": {
        "type": "Point",
        "coordinates": [
          126.1798407220514,
          -41.78107472755313
        ]
      }
    },
    {
      "type": "Feature",
      "properties": {
        "norad_id": 43564,
        "name": "GSAT0221 (GALILEO 25)",
        "group": "gnss",
        "lat": -0.9015074926642996,
        "lon": 167.58860581059716,
        "alt_km": 23225.70748631689,
        "timestamp": "2025-12-05T18:53:13.525947+00:00",
        "meta_object_name": "GSAT0221 (GALILEO 25)",
        "meta_object_id": "2018-060A",
        "meta_epoch": "2025-12-04T07:38:46.646016",
        "meta_mean_motion": 1.70475653,
        "meta_eccentricity": 0.00066579,
        "meta_inclination": 57.2296,
        "meta_ra_of_asc_node": 347.0453,
        "meta_arg_of_pericenter": 280.7305,
        "meta_mean_anomaly": 79.2265,
        "meta_ephemeris_type": 0,
        "meta_classification_type": "U",
        "meta_norad_cat_id": 43564,
        "meta_element_set_no": 999,
        "meta_rev_at_epoch": 4584,
        "meta_bstar": 0,
        "meta_mean_motion_dot": -7.1e-07,
        "meta_mean_motion_ddot": 0,
        "tle_line1": "1 43564U 18060A   25338.31859544 -.00000071  00000+0  00000+0 0  9994",
        "tle_line2": "2 43564  57.2296 347.0453 0006657 280.7305  79.2265  1.70475653 45840"
      },
      "geometry": {
        "type": "Point",
        "coordinates": [
          167.58860581059716,
          -0.9015074926642996
        ]
      }
    },
    {
      "type": "Feature",
      "properties": {
        "norad_id": 43565,
        "name": "GSAT0222 (GALILEO 26)",
        "group": "gnss",
        "lat": 37.60856918721429,
        "lon": 16.763811587681708,
        "alt_km": 23232.645610243973,
        "timestamp": "2025-12-05T18:53:13.525965+00:00",
        "meta_object_name": "GSAT0222 (GALILEO 26)",
        "meta_object_id": "2018-060B",
        "meta_epoch": "2025-12-03T08:45:14.770656",
        "meta_mean_motion": 1.70475396,
        "meta_eccentricity": 0.00061792,
        "meta_inclination": 57.2336,
        "meta_ra_of_asc_node": 347.0741,
        "meta_arg_of_pericenter": 260.8098,
        "meta_mean_anomaly": 99.1565,
        "meta_ephemeris_type": 0,
        "meta_classification_type": "U",
        "meta_norad_cat_id": 43565,
        "meta_element_set_no": 999,
        "meta_rev_at_epoch": 4587,
        "meta_bstar": 0,
        "meta_mean_motion_dot": -6.7e-07,
        "meta_mean_motion_ddot": 0,
        "tle_line1": "1 43565U 18060B   25337.36475429 -.00000067  00000+0  00000+0 0  9990",
        "tle_line2": "2 43565  57.2336 347.0741 0006179 260.8098  99.1565  1.70475396 45874"
      },
      "geometry": {
        "type": "Point",
        "coordinates": [
          16.763811587681708,
          37.60856918721429
        ]
      }
    },
    {
      "type": "Feature",
      "properties": {
        "norad_id": 43566,
        "name": "GSAT0219 (GALILEO 23)",
        "group": "gnss",
        "lat": -57.2007339925025,
        "lon": -101.5427899047961,
        "alt_km": 23211.456475310053,
        "timestamp": "2025-12-05T18:53:13.525982+00:00",
        "meta_object_name": "GSAT0219 (GALILEO 23)",
        "meta_object_id": "2018-060C",
        "meta_epoch": "2025-12-03T14:03:42.727680",
        "meta_mean_motion": 1.70475586,
        "meta_eccentricity": 0.00058261,
        "meta_inclination": 57.2326,
        "meta_ra_of_asc_node": 347.0697,
        "meta_arg_of_pericenter": 286.7572,
        "meta_mean_anomaly": 73.2143,
        "meta_ephemeris_type": 0,
        "meta_classification_type": "U",
        "meta_norad_cat_id": 43566,
        "meta_element_set_no": 999,
        "meta_rev_at_epoch": 4585,
        "meta_bstar": 0,
        "meta_mean_motion_dot": -6.8e-07,
        "meta_mean_motion_ddot": 0,
        "tle_line1": "1 43566U 18060C   25337.58591120 -.00000068  00000+0  00000+0 0  9993",
        "tle_line2": "2 43566  57.2326 347.0697 0005826 286.7572  73.2143  1.70475586 45850"
      },
      "geometry": {
        "type": "Point",
        "coordinates": [
          -101.5427899047961,
          -57.2007339925025
        ]
      }
    },
    {
      "type": "Feature",
      "properties": {
        "norad_id": 43567,
        "name": "GSAT0220 (GALILEO 24)",
        "group": "gnss",
        "lat": 36.33195002157563,
        "lon": 138.7324347902649,
        "alt_km": 23232.555941250783,
        "timestamp": "2025-12-05T18:53:13.526004+00:00",
        "meta_object_name": "GSAT0220 (GALILEO 24)",
        "meta_object_id": "2018-060D",
        "meta_epoch": "2025-12-01T11:03:06.852672",
        "meta_mean_motion": 1.70475407,
        "meta_eccentricity": 0.00061058,
        "meta_inclination": 57.2328,
        "meta_ra_of_asc_node": 347.128,
        "meta_arg_of_pericenter": 280.6549,
        "meta_mean_anomaly": 79.3184,
        "meta_ephemeris_type": 0,
        "meta_classification_type": "U",
        "meta_norad_cat_id": 43567,
        "meta_element_set_no": 999,
        "meta_rev_at_epoch": 4580,
        "meta_bstar": 0,
        "meta_mean_motion_dot": -5.9e-07,
        "meta_mean_motion_ddot": 0,
        "tle_line1": "1 43567U 18060D   25335.46049598 -.00000059  00000+0  00000+0 0  9996",
        "tle_line2": "2 43567  57.2328 347.1280 0006105 280.6549  79.3184  1.70475407 45809"
      },
      "geometry": {
        "type": "Point",
        "coordinates": [
          138.7324347902649,
          36.33195002157563
        ]
      }
    }
  ]
}